OBJECT_NAME,OBJECT_ID,EPOCH,MEAN_MOTION,ECCENTRICITY,INCLINATION,RA_OF_ASC_NODE,ARG_OF_PERICENTER,MEAN_ANOMALY,EPHEMERIS_TYPE,CLASSIFICATION_TYPE,NORAD_CAT_ID,ELEMENT_SET_NO,REV_AT_EPOCH,BSTAR,MEAN_MOTION_DOT,MEAN_MOTION_DDOT
SL-16 R/B,1996-051B,2026-06-11T20:40:35.745312,14.12444119,.0015016,70.7638,335.9202,344.9513,15.1157,0,U,24298,999,53494,.90634E-4,.118E-5,0
ORBVIEW 2 (SEASTAR),1997-037A,2026-06-11T10:39:24.365664,14.35550492,.0003038,98.8682,329.3041,127.6428,232.5032,0,U,24883,999,52192,.82157E-4,.19E-5,0
SL-16 R/B,1998-043G,2026-06-11T14:37:49.747584,14.26067680,.0010922,98.8362,116.7209,100.8866,259.3542,0,U,25400,999,45237,.29848E-4,.26E-6,0
SL-16 R/B,1998-045B,2026-06-11T19:07:58.707264,14.16204827,.0009501,71.0121,343.6653,248.5088,111.5022,0,U,25407,999,44042,-.43355E-4,-.134E-5,0
ISS (ZARYA),1998-067A,2026-06-11T20:03:08.872704,15.49179015,.0004934,51.6334,326.5798,175.2433,184.8603,0,U,25544,999,57092,.13937E-3,.7284E-4,0
CZ-4B R/B,1999-025C,2026-06-11T17:10:26.433408,14.18282562,.003821,98.6485,204.6916,74.9533,35.5452,0,U,25732,999,40149,.36596E-4,.33E-6,0
OKEAN-O,1999-039A,2026-06-11T17:42:24.600672,14.80460666,.0001734,97.9317,221.5980,75.5952,284.5453,0,U,25860,999,44830,.69705E-4,.481E-5,0
SL-16 R/B,1999-039B,2026-06-11T16:43:50.221056,14.81839823,.001377,97.9838,221.5756,316.3327,43.6796,0,U,25861,999,45078,.57946E-4,.404E-5,0
DELTA 2 R/B,1999-041E,2026-06-11T15:42:34.682112,14.12006108,.0500872,51.7663,285.8973,265.6608,88.6960,0,U,25876,999,37630,.15698E-3,.741E-5,0
HELIOS 1B,1999-064A,2026-06-11T17:33:44.802720,14.87992386,.000247,98.1620,67.7135,98.4274,261.7222,0,U,25977,999,69924,.13417E-3,.1172E-4,0
TERRA,1999-068A,2026-06-11T19:47:08.955744,14.61098812,.0001177,97.9458,212.5831,211.7689,270.0977,0,U,25994,999,40882,.74687E-4,.323E-5,0
SL-16 R/B,2000-006B,2026-06-11T16:41:51.224928,14.15835303,.0015235,71.0027,260.1719,31.5761,328.6273,0,U,26070,999,36186,-.11472E-3,-.274E-5,0
TITAN 4B R/B,2000-047B,2026-06-11T16:41:37.127040,15.10165325,.0045613,67.9872,136.0303,292.7819,66.8515,0,U,26474,999,40710,.17795E-3,.2843E-4,0
ENVISAT,2002-009A,2026-06-11T21:30:44.295264,14.39063569,.0001339,98.3833,114.3328,89.8532,336.4099,0,U,27386,999,27272,.31557E-4,.55E-6,0
IDEFIX & ARIANE 42P R/B,2002-021B,2026-06-11T17:54:09.671328,14.31079601,.0010585,98.5943,100.2880,271.8145,88.1826,0,U,27422,999,25747,.79148E-4,.165E-5,0
AQUA,2002-022A,2026-06-11T20:35:14.720928,14.62149994,.0001316,98.4275,132.0342,53.1833,31.7763,0,U,27424,999,28249,.13781E-3,.644E-5,0
CZ-4B R/B,2002-024C,2026-06-11T19:18:30.026880,14.14563447,.0051143,98.8700,215.6594,115.2012,359.8350,0,U,27432,999,24254,.33482E-4,.21E-6,0
MIDORI II (ADEOS-II),2002-056A,2026-06-11T17:57:01.852704,14.29346693,.0002222,98.7876,121.9616,84.2526,275.8909,0,U,27597,999,22373,.10001E-3,.209E-5,0
H-2A R/B,2002-056E,2026-06-11T12:11:57.642720,14.33819676,.0068976,98.3310,119.3899,241.7283,227.9874,0,U,27601,999,22755,.69715E-4,.157E-5,0
CZ-4B R/B,2003-049C,2026-06-11T14:13:21.351072,14.55096543,.0047136,98.6895,161.2164,306.0717,53.6118,0,U,28059,999,20025,.74013E-4,.272E-5,0
CZ-2C R/B,2004-012C,2026-06-11T16:59:53.478240,15.77933342,.0008953,97.7095,237.7383,307.3545,52.6905,0,U,28222,999,21903,.53842E-3,.9163E-3,0
SL-16 R/B,2004-021B,2026-06-11T20:35:21.213024,14.14610751,.0007446,71.0016,34.8746,260.8656,99.1624,0,U,28353,999,13615,-.11973E-3,-.278E-5,0
CZ-4B R/B,2004-035C,2026-06-11T15:23:02.766336,15.30545786,.0030571,97.3373,195.7768,358.1891,1.9235,0,U,28415,999,19427,.2548E-3,.7555E-4,0
CZ-2C R/B,2004-046B,2026-06-11T17:20:14.401824,14.27025326,.0138256,98.1949,71.8445,236.5373,122.2530,0,U,28480,999,12191,.30355E-4,.4E-6,0
ARIANE 5 R/B,2004-049H,2026-06-11T11:19:40.119168,14.85441248,.0084848,98.2716,334.5044,47.7848,313.0527,0,U,28499,999,15971,.72443E-4,.601E-5,0
CZ-2D R/B,2005-024B,2026-06-11T16:07:09.313248,15.68959215,.0004263,97.3492,181.8269,64.7947,295.3756,0,U,28738,999,15447,.45434E-3,.5237E-3,0
ALOS (DAICHI),2006-002A,2026-06-11T20:23:12.017760,14.70039419,.0001646,98.1322,118.4335,58.1351,302.0014,0,U,28931,999,8731,.15478E-3,.879E-5,0
H-2A R/B,2006-002B,2026-06-11T09:15:28.905408,15.17987423,.0049634,98.2553,317.6909,282.5768,76.9915,0,U,28932,999,10864,.27216E-3,.5627E-4,0
RESURS-DK 1,2006-021A,2026-06-11T16:20:35.121120,15.13193083,.0006682,69.9338,353.8061,296.0141,64.0336,0,U,29228,999,10174,.13218E-3,.2244E-4,0
CZ-4B R/B,2006-046C,2026-06-11T17:09:26.674848,15.17744091,.0031176,97.5459,207.3388,302.7726,57.0505,0,U,29507,999,7430,.17059E-3,.3414E-4,0
CZ-2C R/B,2007-010B,2026-06-11T06:47:44.294784,14.20274873,.0059373,98.4093,270.9230,23.2361,337.1481,0,U,31114,999,99300,.44432E-4,.56E-6,0
